0 DELTA 1 DEB
1 26840U 75052KU  13282.41405985  .00000157  00000-0  71415-3 0   637
2 26840 099.6837 081.7558 0369865 009.6143 017.6454 12.71806570  3656
0 DELTA 1 DEB
1 26840U 75052KU  13285.40111441  .00000130  00000-0  61599-3 0   644
2 26840 099.6838 084.2893 0369867 003.1230 013.9112 12.71807898  4032
0 DELTA 1 DEB
1 26840U 75052KU  13288.39813206  .00000176  00000-0  78885-3 0   650
2 26840 099.6843 086.8313 0369898 356.6116 055.8073 12.71809233  4414
0 DELTA 1 DEB
1 26840U 75052KU  13290.93777263  .00000166  00000-0  75221-3 0   666
2 26840 099.6847 088.9854 0369912 351.0967 163.6040 12.71810312  4749
0 DELTA 1 DEB
1 26840U 75052KU  13293.11736707  .00000205  00000-0  89708-3 0   677
2 26840 099.6848 090.8341 0369950 346.3621 062.9314 12.71811098  5017
0 DELTA 1 DEB
1 26840U 75052KU  13295.39937773  .00000227  00000-0  97951-3 0   689
2 26840 099.6847 092.7698 0369991 341.4096 071.1757 12.71811881  5304
